CCSDS_OMM_VERS = 2.0
CREATION_DATE  = 
ORIGINATOR     = 

OBJECT_NAME    = COSMOS 2058
OBJECT_ID      = 1990-010A
CENTER_NAME    = EARTH
REF_FRAME      = TEME
TIME_SYSTEM    = UTC
MEAN_ELEMENT_THEORY = SGP/SGP4

EPOCH          = 2026-03-15T09:47:50.364384
MEAN_MOTION    = 15.11377525
ECCENTRICITY   = .00085535
INCLINATION    = 82.4665
RA_OF_ASC_NODE = 41.7924
ARG_OF_PERICENTER = 325.3328
MEAN_ANOMALY   = 34.7344

EPHEMERIS_TYPE = 0
CLASSIFICATION_TYPE = U
NORAD_CAT_ID   = 20465
ELEMENT_SET_NO = 999
REV_AT_EPOCH   = 94310
BSTAR          = .26667244E-3
MEAN_MOTION_DOT = .453E-4
MEAN_MOTION_DDOT = 0

CCSDS_OMM_VERS = 2.0
CREATION_DATE  = 
ORIGINATOR     = 

OBJECT_NAME    = SL-14 R/B
OBJECT_ID      = 1990-010B
CENTER_NAME    = EARTH
REF_FRAME      = TEME
TIME_SYSTEM    = UTC
MEAN_ELEMENT_THEORY = SGP/SGP4

EPOCH          = 2026-03-15T13:18:49.543776
MEAN_MOTION    = 14.83574202
ECCENTRICITY   = .00183371
INCLINATION    = 82.4987
RA_OF_ASC_NODE = 261.8777
ARG_OF_PERICENTER = 281.5312
MEAN_ANOMALY   = 78.3844

EPHEMERIS_TYPE = 0
CLASSIFICATION_TYPE = U
NORAD_CAT_ID   = 20466
ELEMENT_SET_NO = 999
REV_AT_EPOCH   = 92935
BSTAR          = .48035039E-4
MEAN_MOTION_DOT = .42E-5
MEAN_MOTION_DDOT = 0

CCSDS_OMM_VERS = 2.0
CREATION_DATE  = 
ORIGINATOR     = 

OBJECT_NAME    = SL-14 R/B
OBJECT_ID      = 1990-018B
CENTER_NAME    = EARTH
REF_FRAME      = TEME
TIME_SYSTEM    = UTC
MEAN_ELEMENT_THEORY = SGP/SGP4

EPOCH          = 2026-03-15T15:29:50.981280
MEAN_MOTION    = 14.82151494
ECCENTRICITY   = .00175616
INCLINATION    = 82.5214
RA_OF_ASC_NODE = 217.5225
ARG_OF_PERICENTER = 74.0554
MEAN_ANOMALY   = 286.2594

EPHEMERIS_TYPE = 0
CLASSIFICATION_TYPE = U
NORAD_CAT_ID   = 20511
ELEMENT_SET_NO = 999
REV_AT_EPOCH   = 92346
BSTAR          = .55466025E-4
MEAN_MOTION_DOT = .466E-5
MEAN_MOTION_DDOT = 0

CCSDS_OMM_VERS = 2.0
CREATION_DATE  = 
ORIGINATOR     = 

OBJECT_NAME    = HST
OBJECT_ID      = 1990-037B
CENTER_NAME    = EARTH
REF_FRAME      = TEME
TIME_SYSTEM    = UTC
MEAN_ELEMENT_THEORY = SGP/SGP4

EPOCH          = 2026-03-15T11:43:53.835456
MEAN_MOTION    = 15.29582135
ECCENTRICITY   = .00017287
INCLINATION    = 28.4725
RA_OF_ASC_NODE = 0.4373
ARG_OF_PERICENTER = 184.2675
MEAN_ANOMALY   = 175.7906

EPHEMERIS_TYPE = 0
CLASSIFICATION_TYPE = U
NORAD_CAT_ID   = 20580
ELEMENT_SET_NO = 999
REV_AT_EPOCH   = 77420
BSTAR          = .2455867E-3
MEAN_MOTION_DOT = .7477E-4
MEAN_MOTION_DDOT = 0

CCSDS_OMM_VERS = 2.0
CREATION_DATE  = 
ORIGINATOR     = 

OBJECT_NAME    = SL-16 R/B
OBJECT_ID      = 1990-046B
CENTER_NAME    = EARTH
REF_FRAME      = TEME
TIME_SYSTEM    = UTC
MEAN_ELEMENT_THEORY = SGP/SGP4

EPOCH          = 2026-03-15T13:33:02.793024
MEAN_MOTION    = 14.15011222
ECCENTRICITY   = .00161696
INCLINATION    = 70.9974
RA_OF_ASC_NODE = 285.5755
ARG_OF_PERICENTER = 291.7855
MEAN_ANOMALY   = 68.1547

EPHEMERIS_TYPE = 0
CLASSIFICATION_TYPE = U
NORAD_CAT_ID   = 20625
ELEMENT_SET_NO = 999
REV_AT_EPOCH   = 84922
BSTAR          = .12962196E-4
MEAN_MOTION_DOT = -.23E-6
MEAN_MOTION_DDOT = 0

CCSDS_OMM_VERS = 2.0
CREATION_DATE  = 
ORIGINATOR     = 

OBJECT_NAME    = COSMOS 2084
OBJECT_ID      = 1990-055A
CENTER_NAME    = EARTH
REF_FRAME      = TEME
TIME_SYSTEM    = UTC
MEAN_ELEMENT_THEORY = SGP/SGP4

EPOCH          = 2026-03-15T15:11:11.343552
MEAN_MOTION    = 15.05686621
ECCENTRICITY   = .00161424
INCLINATION    = 62.7912
RA_OF_ASC_NODE = 315.3087
ARG_OF_PERICENTER = 191.5948
MEAN_ANOMALY   = 168.4783

EPHEMERIS_TYPE = 0
CLASSIFICATION_TYPE = U
NORAD_CAT_ID   = 20663
ELEMENT_SET_NO = 999
REV_AT_EPOCH   = 93721
BSTAR          = .15745729E-3
MEAN_MOTION_DOT = .2089E-4
MEAN_MOTION_DDOT = 0

CCSDS_OMM_VERS = 2.0
CREATION_DATE  = 
ORIGINATOR     = 

OBJECT_NAME    = SL-6 R/B(2)
OBJECT_ID      = 1990-055D
CENTER_NAME    = EARTH
REF_FRAME      = TEME
TIME_SYSTEM    = UTC
MEAN_ELEMENT_THEORY = SGP/SGP4

EPOCH          = 2026-03-15T13:22:08.845248
MEAN_MOTION    = 15.03624957
ECCENTRICITY   = .00257318
INCLINATION    = 62.7821
RA_OF_ASC_NODE = 233.8965
ARG_OF_PERICENTER = 348.4168
MEAN_ANOMALY   = 11.6336

EPHEMERIS_TYPE = 0
CLASSIFICATION_TYPE = U
NORAD_CAT_ID   = 20666
ELEMENT_SET_NO = 999
REV_AT_EPOCH   = 93907
BSTAR          = .15705119E-3
MEAN_MOTION_DOT = .1971E-4
MEAN_MOTION_DDOT = 0

CCSDS_OMM_VERS = 2.0
CREATION_DATE  = 
ORIGINATOR     = 

OBJECT_NAME    = SL-8 R/B
OBJECT_ID      = 1990-078B
CENTER_NAME    = EARTH
REF_FRAME      = TEME
TIME_SYSTEM    = UTC
MEAN_ELEMENT_THEORY = SGP/SGP4

EPOCH          = 2026-03-15T13:20:05.789184
MEAN_MOTION    = 14.89271089
ECCENTRICITY   = .03609578
INCLINATION    = 82.8997
RA_OF_ASC_NODE = 246.0338
ARG_OF_PERICENTER = 354.2587
MEAN_ANOMALY   = 5.4537

EPHEMERIS_TYPE = 0
CLASSIFICATION_TYPE = U
NORAD_CAT_ID   = 20775
ELEMENT_SET_NO = 999
REV_AT_EPOCH   = 81017
BSTAR          = .48036074E-3
MEAN_MOTION_DOT = .16288E-3
MEAN_MOTION_DDOT = 0

CCSDS_OMM_VERS = 2.0
CREATION_DATE  = 
ORIGINATOR     = 

OBJECT_NAME    = SL-8 R/B
OBJECT_ID      = 1991-006B
CENTER_NAME    = EARTH
REF_FRAME      = TEME
TIME_SYSTEM    = UTC
MEAN_ELEMENT_THEORY = SGP/SGP4

EPOCH          = 2026-03-15T08:44:34.227456
MEAN_MOTION    = 13.77495052
ECCENTRICITY   = .00227419
INCLINATION    = 82.9463
RA_OF_ASC_NODE = 165.8275
ARG_OF_PERICENTER = 22.9022
MEAN_ANOMALY   = 46.4463

EPHEMERIS_TYPE = 0
CLASSIFICATION_TYPE = U
NORAD_CAT_ID   = 21088
ELEMENT_SET_NO = 999
REV_AT_EPOCH   = 76485
BSTAR          = .51094308E-4
MEAN_MOTION_DOT = .66E-6
MEAN_MOTION_DDOT = 0

CCSDS_OMM_VERS = 2.0
CREATION_DATE  = 
ORIGINATOR     = 

OBJECT_NAME    = OKEAN-3
OBJECT_ID      = 1991-039A
CENTER_NAME    = EARTH
REF_FRAME      = TEME
TIME_SYSTEM    = UTC
MEAN_ELEMENT_THEORY = SGP/SGP4

EPOCH          = 2026-03-15T15:55:27.458400
MEAN_MOTION    = 15.04853041
ECCENTRICITY   = .00133756
INCLINATION    = 82.5202
RA_OF_ASC_NODE = 331.0571
ARG_OF_PERICENTER = 315.0033
MEAN_ANOMALY   = 45.0109

EPHEMERIS_TYPE = 0
CLASSIFICATION_TYPE = U
NORAD_CAT_ID   = 21397
ELEMENT_SET_NO = 999
REV_AT_EPOCH   = 86593
BSTAR          = .20770191E-3
MEAN_MOTION_DOT = .2967E-4
MEAN_MOTION_DDOT = 0

CCSDS_OMM_VERS = 2.0
CREATION_DATE  = 
ORIGINATOR     = 

OBJECT_NAME    = COSMOS 2151
OBJECT_ID      = 1991-042A
CENTER_NAME    = EARTH
REF_FRAME      = TEME
TIME_SYSTEM    = UTC
MEAN_ELEMENT_THEORY = SGP/SGP4

EPOCH          = 2026-03-15T13:16:38.801568
MEAN_MOTION    = 15.00130163
ECCENTRICITY   = .00136322
INCLINATION    = 82.4929
RA_OF_ASC_NODE = 78.0181
ARG_OF_PERICENTER = 45.6937
MEAN_ANOMALY   = 314.5402

EPHEMERIS_TYPE = 0
CLASSIFICATION_TYPE = U
NORAD_CAT_ID   = 21422
ELEMENT_SET_NO = 999
REV_AT_EPOCH   = 86407
BSTAR          = .18416865E-3
MEAN_MOTION_DOT = .2328E-4
MEAN_MOTION_DDOT = 0

CCSDS_OMM_VERS = 2.0
CREATION_DATE  = 
ORIGINATOR     = 

OBJECT_NAME    = SL-14 R/B
OBJECT_ID      = 1991-042B
CENTER_NAME    = EARTH
REF_FRAME      = TEME
TIME_SYSTEM    = UTC
MEAN_ELEMENT_THEORY = SGP/SGP4

EPOCH          = 2026-03-15T15:10:45.802848
MEAN_MOTION    = 14.81836018
ECCENTRICITY   = .00161295
INCLINATION    = 82.4935
RA_OF_ASC_NODE = 214.6098
ARG_OF_PERICENTER = 217.7794
MEAN_ANOMALY   = 142.2289

EPHEMERIS_TYPE = 0
CLASSIFICATION_TYPE = U
NORAD_CAT_ID   = 21423
ELEMENT_SET_NO = 999
REV_AT_EPOCH   = 85395
BSTAR          = .55858566E-4
MEAN_MOTION_DOT = .465E-5
MEAN_MOTION_DDOT = 0

