COSMOS 2058             
1 20465U 90010A   26074.40822181  .00004530  00000+0  26667-3 0  9993
2 20465  82.4665  41.7924 0008553 325.3328  34.7344 15.11377525943103
SL-14 R/B               
1 20466U 90010B   26074.55474009  .00000420  00000+0  48035-4 0  9990
2 20466  82.4987 261.8777 0018337 281.5312  78.3844 14.83574202929358
SL-14 R/B               
1 20511U 90018B   26074.64572895  .00000466  00000+0  55466-4 0  9997
2 20511  82.5214 217.5225 0017561  74.0554 286.2594 14.82151494923461
HST                     
1 20580U 90037B   26074.48881754  .00007477  00000+0  24559-3 0  9990
2 20580  28.4725   0.4373 0001728 184.2675 175.7906 15.29582135774209
SL-16 R/B               
1 20625U 90046B   26074.56461566 -.00000023  00000+0  12962-4 0  9991
2 20625  70.9974 285.5755 0016169 291.7855  68.1547 14.15011222849225
COSMOS 2084             
1 20663U 90055A   26074.63277018  .00002089  00000+0  15746-3 0  9993
2 20663  62.7912 315.3087 0016142 191.5948 168.4783 15.05686621937213
SL-6 R/B(2)             
1 20666U 90055D   26074.55704682  .00001971  00000+0  15705-3 0  9993
2 20666  62.7821 233.8965 0025731 348.4168  11.6336 15.03624957939076
SL-8 R/B                
1 20775U 90078B   26074.55562256  .00016288  00000+0  48036-3 0  9998
2 20775  82.8997 246.0338 0360957 354.2587   5.4537 14.89271089810176
SL-8 R/B                
1 21088U 91006B   26074.36428504  .00000066  00000+0  51094-4 0  9990
2 21088  82.9463 165.8275 0022741  22.9022  46.4463 13.77495052764850
OKEAN-3                 
1 21397U 91039A   26074.66351225  .00002967  00000+0  20770-3 0  9995
2 21397  82.5202 331.0571 0013375 315.0033  45.0109 15.04853041865938
COSMOS 2151             
1 21422U 91042A   26074.55322687  .00002328  00000+0  18417-3 0  9992
2 21422  82.4929  78.0181 0013632  45.6937 314.5402 15.00130163864075
SL-14 R/B               
1 21423U 91042B   26074.63247457  .00000465  00000+0  55859-4 0  9995
2 21423  82.4935 214.6098 0016129 217.7794 142.2289 14.81836018853959
